[{"OBJECT_NAME":"STARLINK-3723","OBJECT_ID":"2022-029BC","EPOCH":"2026-03-09T06:18:40.945824","MEAN_MOTION":15.08827538,"ECCENTRICITY":0.00012964,"INCLINATION":53.2178,"RA_OF_ASC_NODE":71.0337,"ARG_OF_PERICENTER":88.1691,"MEAN_ANOMALY":271.945,"EPHEMERIS_TYPE":0,"CLASSIFICATION_TYPE":"U","NORAD_CAT_ID":52138,"ELEMENT_SET_NO":999,"REV_AT_EPOCH":22087,"BSTAR":0.00012625708,"MEAN_MOTION_DOT":1.721e-5,"MEAN_MOTION_DDOT":0},{"OBJECT_NAME":"DELFI-N3XT","OBJECT_ID":"2013-066N","EPOCH":"2026-03-09T17:56:16.820160","MEAN_MOTION":14.93675177,"ECCENTRICITY":0.00763289,"INCLINATION":97.8341,"RA_OF_ASC_NODE":349.2574,"ARG_OF_PERICENTER":176.1438,"MEAN_ANOMALY":184.0386,"EPHEMERIS_TYPE":0,"CLASSIFICATION_TYPE":"U","NORAD_CAT_ID":39428,"ELEMENT_SET_NO":999,"REV_AT_EPOCH":65977,"BSTAR":0.00065912071,"MEAN_MOTION_DOT":7.321e-5,"MEAN_MOTION_DDOT":0}]
